{
  "type": "FeatureCollection",
  "features": [
    {
      "type": "Feature",
      "properties": {
        "norad_id": 35231,
        "name": "FENGYUN 1C DEB",
        "group": "fengyun-1c-debris",
        "lat": -47.74384579026295,
        "lon": 40.72424252209348,
        "alt_km": 868.4109310978502,
        "timestamp": "2025-12-13T20:38:51.292916+00:00",
        "meta_object_name": "FENGYUN 1C DEB",
        "meta_object_id": "1999-025DQP",
        "meta_epoch": "2025-12-12T22:48:27.642816",
        "meta_mean_motion": 14.14528403,
        "meta_eccentricity": 0.00380153,
        "meta_inclination": 98.7207,
        "meta_ra_of_asc_node": 30.1094,
        "meta_arg_of_pericenter": 84.5353,
        "meta_mean_anomaly": 276.0155,
        "meta_ephemeris_type": 0,
        "meta_classification_type": "U",
        "meta_norad_cat_id": 35231,
        "meta_element_set_no": 999,
        "meta_rev_at_epoch": 91505,
        "meta_bstar": 3.8234964e-05,
        "meta_mean_motion_dot": 3.1e-07,
        "meta_mean_motion_ddot": 0,
        "tle_line1": "1 35231U 99025DQP 25346.95031994  .00000031  00000+0  38235-4 0  9997",
        "tle_line2": "2 35231  98.7207  30.1094 0038015  84.5353 276.0155 14.14528403915059"
      },
      "geometry": {
        "type": "Point",
        "coordinates": [
          40.72424252209348,
          -47.74384579026295
        ]
      }
    },
    {
      "type": "Feature",
      "properties": {
        "norad_id": 35233,
        "name": "FENGYUN 1C DEB",
        "group": "fengyun-1c-debris",
        "lat": 41.99131031393446,
        "lon": -84.9944368325874,
        "alt_km": 763.7679432824707,
        "timestamp": "2025-12-13T20:38:51.292927+00:00",
        "meta_object_name": "FENGYUN 1C DEB",
        "meta_object_id": "1999-025DQR",
        "meta_epoch": "2025-12-12T18:05:16.400256",
        "meta_mean_motion": 14.41867932,
        "meta_eccentricity": 0.00414884,
        "meta_inclination": 98.7697,
        "meta_ra_of_asc_node": 85.8822,
        "meta_arg_of_pericenter": 261.1566,
        "meta_mean_anomaly": 255.4882,
        "meta_ephemeris_type": 0,
        "meta_classification_type": "U",
        "meta_norad_cat_id": 35233,
        "meta_element_set_no": 999,
        "meta_rev_at_epoch": 91176,
        "meta_bstar": 0.0028204127,
        "meta_mean_motion_dot": 9.288e-05,
        "meta_mean_motion_ddot": 0,
        "tle_line1": "1 35233U 99025DQR 25346.75366204  .00009288  00000+0  28204-2 0  9998",
        "tle_line2": "2 35233  98.7697  85.8822 0041488 261.1566 255.4882 14.41867932911762"
      },
      "geometry": {
        "type": "Point",
        "coordinates": [
          -84.9944368325874,
          41.99131031393446
        ]
      }
    },
    {
      "type": "Feature",
      "properties": {
        "norad_id": 35234,
        "name": "FENGYUN 1C DEB",
        "group": "fengyun-1c-debris",
        "lat": -2.025842700702338,
        "lon": 16.065726005008237,
        "alt_km": 689.0295322221727,
        "timestamp": "2025-12-13T20:38:51.292937+00:00",
        "meta_object_name": "FENGYUN 1C DEB",
        "meta_object_id": "1999-025DQS",
        "meta_epoch": "2025-12-13T00:59:38.150592",
        "meta_mean_motion": 14.65556469,
        "meta_eccentricity": 0.00997229,
        "meta_inclination": 98.0693,
        "meta_ra_of_asc_node": 14.974,
        "meta_arg_of_pericenter": 261.5039,
        "meta_mean_anomaly": 97.4853,
        "meta_ephemeris_type": 0,
        "meta_classification_type": "U",
        "meta_norad_cat_id": 35234,
        "meta_element_set_no": 999,
        "meta_rev_at_epoch": 94360,
        "meta_bstar": 0.00081089977,
        "meta_mean_motion_dot": 4.683e-05,
        "meta_mean_motion_ddot": 0,
        "tle_line1": "1 35234U 99025DQS 25347.04141378  .00004683  00000+0  81090-3 0  9992",
        "tle_line2": "2 35234  98.0693  14.9740 0099722 261.5039  97.4853 14.65556469943603"
      },
      "geometry": {
        "type": "Point",
        "coordinates": [
          16.065726005008237,
          -2.025842700702338
        ]
      }
    },
    {
      "type": "Feature",
      "properties": {
        "norad_id": 35239,
        "name": "FENGYUN 1C DEB",
        "group": "fengyun-1c-debris",
        "lat": -4.705673897832091,
        "lon": 149.2664187146376,
        "alt_km": 839.8466016639222,
        "timestamp": "2025-12-13T20:38:51.292947+00:00",
        "meta_object_name": "FENGYUN 1C DEB",
        "meta_object_id": "1999-025DQX",
        "meta_epoch": "2025-12-12T09:35:43.878624",
        "meta_mean_motion": 13.69214451,
        "meta_eccentricity": 0.02297009,
        "meta_inclination": 99.2659,
        "meta_ra_of_asc_node": 147.0912,
        "meta_arg_of_pericenter": 11.2565,
        "meta_mean_anomaly": 349.3598,
        "meta_ephemeris_type": 0,
        "meta_classification_type": "U",
        "meta_norad_cat_id": 35239,
        "meta_element_set_no": 999,
        "meta_rev_at_epoch": 58126,
        "meta_bstar": 0.0012894892,
        "meta_mean_motion_dot": 1.302e-05,
        "meta_mean_motion_ddot": 0,
        "tle_line1": "1 35239U 99025DQX 25346.39981341  .00001302  00000+0  12895-2 0  9997",
        "tle_line2": "2 35239  99.2659 147.0912 0229700  11.2565 349.3598 13.69214451581267"
      },
      "geometry": {
        "type": "Point",
        "coordinates": [
          149.2664187146376,
          -4.705673897832091
        ]
      }
    },
    {
      "type": "Feature",
      "properties": {
        "norad_id": 35240,
        "name": "FENGYUN 1C DEB",
        "group": "fengyun-1c-debris",
        "lat": 43.1483396953595,
        "lon": -58.52736600148905,
        "alt_km": 818.7193489745732,
        "timestamp": "2025-12-13T20:38:51.292957+00:00",
        "meta_object_name": "FENGYUN 1C DEB",
        "meta_object_id": "1999-025DQY",
        "meta_epoch": "2025-12-10T19:53:33.388224",
        "meta_mean_motion": 14.23273477,
        "meta_eccentricity": 0.00460429,
        "meta_inclination": 99.3521,
        "meta_ra_of_asc_node": 307.1402,
        "meta_arg_of_pericenter": 157.1432,
        "meta_mean_anomaly": 203.1807,
        "meta_ephemeris_type": 0,
        "meta_classification_type": "U",
        "meta_norad_cat_id": 35240,
        "meta_element_set_no": 999,
        "meta_rev_at_epoch": 93137,
        "meta_bstar": 0.0028626326,
        "meta_mean_motion_dot": 6.509e-05,
        "meta_mean_motion_ddot": 0,
        "tle_line1": "1 35240U 99025DQY 25344.82885866  .00006509  00000+0  28626-2 0  9993",
        "tle_line2": "2 35240  99.3521 307.1402 0046042 157.1432 203.1807 14.23273477931375"
      },
      "geometry": {
        "type": "Point",
        "coordinates": [
          -58.52736600148905,
          43.1483396953595
        ]
      }
    },
    {
      "type": "Feature",
      "properties": {
        "norad_id": 35241,
        "name": "FENGYUN 1C DEB",
        "group": "fengyun-1c-debris",
        "lat": -78.383947587883,
        "lon": 49.225735545998724,
        "alt_km": 839.3389677056412,
        "timestamp": "2025-12-13T20:38:51.292967+00:00",
        "meta_object_name": "FENGYUN 1C DEB",
        "meta_object_id": "1999-025DQZ",
        "meta_epoch": "2025-12-11T05:44:22.817472",
        "meta_mean_motion": 14.01929609,
        "meta_eccentricity": 0.0135502,
        "meta_inclination": 98.631,
        "meta_ra_of_asc_node": 274.3792,
        "meta_arg_of_pericenter": 212.8639,
        "meta_mean_anomaly": 146.4048,
        "meta_ephemeris_type": 0,
        "meta_classification_type": "U",
        "meta_norad_cat_id": 35241,
        "meta_element_set_no": 999,
        "meta_rev_at_epoch": 87585,
        "meta_bstar": 0.002553102,
        "meta_mean_motion_dot": 4.174e-05,
        "meta_mean_motion_ddot": 0,
        "tle_line1": "1 35241U 99025DQZ 25345.23915298  .00004174  00000+0  25531-2 0  9991",
        "tle_line2": "2 35241  98.6310 274.3792 0135502 212.8639 146.4048 14.01929609875856"
      },
      "geometry": {
        "type": "Point",
        "coordinates": [
          49.225735545998724,
          -78.383947587883
        ]
      }
    },
    {
      "type": "Feature",
      "properties": {
        "norad_id": 35242,
        "name": "FENGYUN 1C DEB",
        "group": "fengyun-1c-debris",
        "lat": 29.297439224607317,
        "lon": -133.92419969176723,
        "alt_km": 877.8213715801612,
        "timestamp": "2025-12-13T20:38:51.292977+00:00",
        "meta_object_name": "FENGYUN 1C DEB",
        "meta_object_id": "1999-025DRA",
        "meta_epoch": "2025-12-09T15:26:53.963232",
        "meta_mean_motion": 13.52332883,
        "meta_eccentricity": 0.0301834,
        "meta_inclination": 99.9692,
        "meta_ra_of_asc_node": 36.171,
        "meta_arg_of_pericenter": 196.4444,
        "meta_mean_anomaly": 317.6855,
        "meta_ephemeris_type": 0,
        "meta_classification_type": "U",
        "meta_norad_cat_id": 35242,
        "meta_element_set_no": 999,
        "meta_rev_at_epoch": 58085,
        "meta_bstar": 0.0024719,
        "meta_mean_motion_dot": 2.128e-05,
        "meta_mean_motion_ddot": 0,
        "tle_line1": "1 35242U 99025DRA 25343.64368013  .00002128  00000+0  24719-2 0  9996",
        "tle_line2": "2 35242  99.9692  36.1710 0301834 196.4444 317.6855 13.52332883580850"
      },
      "geometry": {
        "type": "Point",
        "coordinates": [
          -133.92419969176723,
          29.297439224607317
        ]
      }
    }
  ]
}